{
    "satellites": [
        {
            "name": "starlink348",
            "title": "Starlink-348 (G6-101)",
            "tle": [
                "1 67644C 26020AD  26043.77548611 -.00032520  00000+0 -19894-3 0   438",
                "2 67644  42.9993 293.2961 0001837 265.9725 223.0675 15.76406346    10"
            ],
            "stdMag": 5,
            "noradId": "67644",
            "tleUrl": "http://celestrak.org/NORAD/elements/supplemental/sup-gp.php?FILE=starlink&FORMAT=tle",
            "launchDate": "2026-01-30T07:22:00.000Z",
            "active": true,
            "batch": [
                {
                    "noradId": "67644",
                    "tle": [
                        "1 67644C 26020AD  26043.77548611 -.00032520  00000+0 -19894-3 0   438",
                        "2 67644  42.9993 293.2961 0001837 265.9725 223.0675 15.76406346    10"
                    ]
                },
                {
                    "noradId": "67645",
                    "tle": [
                        "1 67645C 26020AE  26043.77618056 -.02107200  00000+0 -11756-1 0   437",
                        "2 67645  42.9992 293.2792 0001199 263.8703 234.2934 15.80558009    17"
                    ]
                },
                {
                    "noradId": "67642",
                    "tle": [
                        "1 67642C 26020AB  26043.78243056  .00028429  00000+0  13452-3 0   437",
                        "2 67642  42.9987 293.2523 0001957 245.8316 283.7326 15.81991270    18"
                    ]
                },
                {
                    "noradId": "67641",
                    "tle": [
                        "1 67641C 26020AA  26043.77756944  .00009261  00000+0  43819-4 0   434",
                        "2 67641  42.9987 293.2916 0001729 268.1580 230.0519 15.82011891    13"
                    ]
                },
                {
                    "noradId": "67643",
                    "tle": [
                        "1 67643C 26020AC  26043.77618056  .00019317  00000+0  11822-3 0   438",
                        "2 67643  42.9990 293.3863 0001766 264.0028 191.7088 15.76345609    18"
                    ]
                },
                {
                    "noradId": "67640",
                    "tle": [
                        "1 67640C 26020Z   26043.77548611 -.00001276  00000+0 -78127-5 0   434",
                        "2 67640  42.9992 293.3599 0002084 262.5275 201.6932 15.76359478    12"
                    ]
                },
                {
                    "noradId": "67639",
                    "tle": [
                        "1 67639C 26020Y   26043.77826389  .00047070  00000+0  22279-3 0   438",
                        "2 67639  42.9988 293.3205 0002002 269.9273 219.2038 15.81965951    15"
                    ]
                },
                {
                    "noradId": "67638",
                    "tle": [
                        "1 67638C 26020X   26043.78173611  .00026026  00000+0  12317-3 0   431",
                        "2 67638  42.9988 293.3106 0002155 271.3015 233.1192 15.81989464    15"
                    ]
                },
                {
                    "noradId": "67637",
                    "tle": [
                        "1 67637C 26020W   26043.77965278  .00024631  00000+0  15075-3 0   431",
                        "2 67637  42.9990 293.4287 0001588 280.1715 170.3835 15.76339816    12"
                    ]
                },
                {
                    "noradId": "67636",
                    "tle": [
                        "1 67636C 26020V   26043.77826389  .00019038  00000+0  90088-4 0   432",
                        "2 67636  42.9989 293.3652 0001971 280.8415 190.7348 15.81999570    14"
                    ]
                },
                {
                    "noradId": "67635",
                    "tle": [
                        "1 67635C 26020U   26043.78173611  .00008635  00000+0  52848-4 0   438",
                        "2 67635  42.9992 293.3846 0002183 267.6017 207.2311 15.76354969    14"
                    ]
                },
                {
                    "noradId": "67634",
                    "tle": [
                        "1 67634C 26020T   26043.78173611  .00031763  00000+0  15033-3 0   439",
                        "2 67634  42.9988 293.3703 0001844 259.8602 220.8871 15.81983267    13"
                    ]
                },
                {
                    "noradId": "67633",
                    "tle": [
                        "1 67633C 26020S   26043.77618056  .00035541  00000+0  21753-3 0   438",
                        "2 67633  42.9990 293.5126 0001955 271.4963 134.4576 15.76327437    16"
                    ]
                },
                {
                    "noradId": "67632",
                    "tle": [
                        "1 67632C 26020R   26043.77826389  .00029042  00000+0  13743-3 0   436",
                        "2 67632  42.9986 293.4100 0001774 286.6122 166.9945 15.81988783    18"
                    ]
                },
                {
                    "noradId": "67631",
                    "tle": [
                        "1 67631C 26020Q   26043.78034722  .00013729  00000+0  64961-4 0   432",
                        "2 67631  42.9986 293.4080 0001601 284.7786 176.5002 15.82007246    16"
                    ]
                },
                {
                    "noradId": "67630",
                    "tle": [
                        "1 67630C 26020P   26043.77826389  .00018639  00000+0  11406-3 0   438",
                        "2 67630  42.9990 293.5310 0002098 267.3556 137.9762 15.76347206    10"
                    ]
                },
                {
                    "noradId": "67629",
                    "tle": [
                        "1 67629C 26020N   26043.78243056  .00024663  00000+0  11672-3 0   430",
                        "2 67629  42.9984 293.4175 0001605 277.0787 187.0710 15.81991962    15"
                    ]
                },
                {
                    "noradId": "67628",
                    "tle": [
                        "1 67628C 26020M   26043.78173611  .00040796  00000+0  19306-3 0   435",
                        "2 67628  42.9983 293.4147 0002095 241.4711 221.5342 15.81975580    11"
                    ]
                },
                {
                    "noradId": "67626",
                    "tle": [
                        "1 67626C 26020K   26043.77965278  .00037342  00000+0  17671-3 0   436",
                        "2 67626  42.9983 293.4453 0001752 260.8942 183.1900 15.81980142    12"
                    ]
                },
                {
                    "noradId": "67627",
                    "tle": [
                        "1 67627C 26020L   26043.78312500  .00017835  00000+0  84396-4 0   436",
                        "2 67627  42.9984 293.4346 0001965 266.3478 193.3637 15.81999467    16"
                    ]
                },
                {
                    "noradId": "67625",
                    "tle": [
                        "1 67625C 26020J   26043.78312500  .00021593  00000+0  13213-3 0   439",
                        "2 67625  42.9989 293.5323 0002127 227.7896 192.7209 15.76345365    15"
                    ]
                },
                {
                    "noradId": "67624",
                    "tle": [
                        "1 67624C 26020H   26043.77756944 -.02032100  00000+0 -11415-1 0   431",
                        "2 67624  42.9992 293.4892 0001075 268.0462 151.4635 15.80329529    10"
                    ]
                },
                {
                    "noradId": "67623",
                    "tle": [
                        "1 67623C 26020G   26043.77756944  .00018011  00000+0  11021-3 0   436",
                        "2 67623  42.9988 293.6282 0001739 264.0052 100.0519 15.76350707    15"
                    ]
                },
                {
                    "noradId": "67622",
                    "tle": [
                        "1 67622C 26020F   26043.77826389  .00018956  00000+0  11599-3 0   434",
                        "2 67622  42.9989 293.5931 0002293 264.8940 115.5554 15.76347355    10"
                    ]
                },
                {
                    "noradId": "67621",
                    "tle": [
                        "1 67621C 26020E   26043.77895833  .00034349  00000+0  16266-3 0   433",
                        "2 67621  42.9988 293.5152 0002179 261.0322 152.9229 15.81967141    10"
                    ]
                },
                {
                    "noradId": "67620",
                    "tle": [
                        "1 67620C 26020D   26043.78034722  .00034338  00000+0  16248-3 0   433",
                        "2 67620  42.9982 293.4974 0001832 263.4791 162.0614 15.81984816    13"
                    ]
                },
                {
                    "noradId": "67619",
                    "tle": [
                        "1 67619C 26020C   26043.77756944  .00014034  00000+0  85875-4 0   431",
                        "2 67619  42.9988 293.6592 0002150 262.9524  88.6666 15.76353673    12"
                    ]
                },
                {
                    "noradId": "67618",
                    "tle": [
                        "1 67618C 26020B   26043.78243056  .00019463  00000+0  92099-4 0   433",
                        "2 67618  42.9983 293.5102 0001892 261.6879 165.6056 15.81998969    11"
                    ]
                },
                {
                    "noradId": "67617",
                    "tle": [
                        "1 67617C 26020A   26043.77826389  .00028486  00000+0  17433-3 0   430",
                        "2 67617  42.9986 293.6860 0001761 260.0192  83.1144 15.76338162    10"
                    ]
                }
            ]
        }
    ],
    "config": {}
}